[
    {
        "Altitude(m)": 705913.1888187396,
        "Argument of Periapsis(deg)": 0.0034170363559881197,
        "Eccentricity": 0.0,
        "Inclination(deg)": 45.0,
        "Latitude(deg)": 38.76776925723739,
        "Longitude(deg)": -168.22430809740433,
        "Mean Anomaly(deg)": 118.00546499424426,
        "RAAN(deg)": 164.99677441756253,
        "Satellite Name": "Constellation 1 733",
        "Satellite Number": 733,
        "Semi-Major Axis(m)": 7083131.272910544,
        "Time(s)": 57
    },
    {
        "Altitude(m)": 705907.773101246,
        "Argument of Periapsis(deg)": 0.003476984362233526,
        "Eccentricity": 0.0,
        "Inclination(deg)": 45.0,
        "Latitude(deg)": 38.74184133865509,
        "Longitude(deg)": -168.1581146358126,
        "Mean Anomaly(deg)": 118.06616613449418,
        "RAAN(deg)": 164.99671782839695,
        "Satellite Name": "Constellation 1 733",
        "Satellite Number": 733,
        "Semi-Major Axis(m)": 7083131.272910544,
        "Time(s)": 58
    },
    {
        "Altitude(m)": 705902.3511366829,
        "Argument of Periapsis(deg)": 0.003536932368478932,
        "Eccentricity": 0.0,
        "Inclination(deg)": 45.0,
        "Latitude(deg)": 38.71587106995181,
        "Longitude(deg)": -168.09197217181094,
        "Mean Anomaly(deg)": 118.126867274744,
        "RAAN(deg)": 164.9966612392314,
        "Satellite Name": "Constellation 1 733",
        "Satellite Number": 733,
        "Semi-Major Axis(m)": 7083131.272910544,
        "Time(s)": 59
    },
    {
        "Altitude(m)": 705896.9229583394,
        "Argument of Periapsis(deg)": 0.003596880374724337,
        "Eccentricity": 0.0,
        "Inclination(deg)": 45.0,
        "Latitude(deg)": 38.689858520209924,
        "Longitude(deg)": -168.02588036789575,
        "Mean Anomaly(deg)": 118.18756841499398,
        "RAAN(deg)": 164.9966046500658,
        "Satellite Name": "Constellation 1 733",
        "Satellite Number": 733,
        "Semi-Major Axis(m)": 7083131.272910544,
        "Time(s)": 60
    },
    {
        "Altitude(m)": 705891.4885995416,
        "Argument of Periapsis(deg)": 0.0036568283809697427,
        "Eccentricity": 0.0,
        "Inclination(deg)": 45.0,
        "Latitude(deg)": 38.66380375849161,
        "Longitude(deg)": -167.95983939047406,
        "Mean Anomaly(deg)": 118.24826955524385,
        "RAAN(deg)": 164.99654806090024,
        "Satellite Name": "Constellation 1 733",
        "Satellite Number": 733,
        "Semi-Major Axis(m)": 7083131.272910544,
        "Time(s)": 61
    },
    {
        "Altitude(m)": 705886.0480936673,
        "Argument of Periapsis(deg)": 0.003716776387215149,
        "Eccentricity": 0.0,
        "Inclination(deg)": 45.0,
        "Latitude(deg)": 38.637706853836484,
        "Longitude(deg)": -167.8938492374747,
        "Mean Anomaly(deg)": 118.30897069549374,
        "RAAN(deg)": 164.99649147173469,
        "Satellite Name": "Constellation 1 733",
        "Satellite Number": 733,
        "Semi-Major Axis(m)": 7083131.272910544,
        "Time(s)": 62
    },
    {
        "Altitude(m)": 705880.6014741368,
        "Argument of Periapsis(deg)": 0.003776724393460554,
        "Eccentricity": 0.0,
        "Inclination(deg)": 45.0,
        "Latitude(deg)": 38.6115678752618,
        "Longitude(deg)": -167.82790990644833,
        "Mean Anomaly(deg)": 118.36967183574366,
        "RAAN(deg)": 164.9964348825691,
        "Satellite Name": "Constellation 1 733",
        "Satellite Number": 733,
        "Semi-Major Axis(m)": 7083131.272910544,
        "Time(s)": 63
    },
    {
        "Altitude(m)": 705875.1487744191,
        "Argument of Periapsis(deg)": 0.003836672399705959,
        "Eccentricity": 0.0,
        "Inclination(deg)": 45.0,
        "Latitude(deg)": 38.585386891762056,
        "Longitude(deg)": -167.7620213945682,
        "Mean Anomaly(deg)": 118.43037297599355,
        "RAAN(deg)": 164.99637829340355,
        "Satellite Name": "Constellation 1 733",
        "Satellite Number": 733,
        "Semi-Major Axis(m)": 7083131.272910544,
        "Time(s)": 64
    },
    {
        "Altitude(m)": 705869.6900280267,
        "Argument of Periapsis(deg)": 0.003896620405951365,
        "Eccentricity": 0.0,
        "Inclination(deg)": 45.0,
        "Latitude(deg)": 38.55916397230805,
        "Longitude(deg)": -167.69618369863167,
        "Mean Anomaly(deg)": 118.49107411624348,
        "RAAN(deg)": 164.99632170423797,
        "Satellite Name": "Constellation 1 733",
        "Satellite Number": 733,
        "Semi-Major Axis(m)": 7083131.272910544,
        "Time(s)": 65
    },
    {
        "Altitude(m)": 705864.2252685159,
        "Argument of Periapsis(deg)": 0.003956568412196771,
        "Eccentricity": 0.0,
        "Inclination(deg)": 45.0,
        "Latitude(deg)": 38.53289918584701,
        "Longitude(deg)": -167.63039681506206,
        "Mean Anomaly(deg)": 118.55177525649333,
        "RAAN(deg)": 164.9962651150724,
        "Satellite Name": "Constellation 1 733",
        "Satellite Number": 733,
        "Semi-Major Axis(m)": 7083131.272910544,
        "Time(s)": 66
    },
    {
        "Altitude(m)": 705858.7545294905,
        "Argument of Periapsis(deg)": 0.004016516418442176,
        "Eccentricity": 0.0,
        "Inclination(deg)": 45.0,
        "Latitude(deg)": 38.50659260130182,
        "Longitude(deg)": -167.56466090800637,
        "Mean Anomaly(deg)": 118.61247639674329,
        "RAAN(deg)": 164.99620852590684,
        "Satellite Name": "Constellation 1 733",
        "Satellite Number": 733,
        "Semi-Major Axis(m)": 7083131.272910544,
        "Time(s)": 67
    },
    {
        "Altitude(m)": 705853.2778446,
        "Argument of Periapsis(deg)": 0.004076464424687581,
        "Eccentricity": 0.0,
        "Inclination(deg)": 45.0,
        "Latitude(deg)": 38.48024428756984,
        "Longitude(deg)": -167.49897563694967,
        "Mean Anomaly(deg)": 118.67317753699314,
        "RAAN(deg)": 164.99615193674126,
        "Satellite Name": "Constellation 1 733",
        "Satellite Number": 733,
        "Semi-Major Axis(m)": 7083131.272910544,
        "Time(s)": 68
    },
    {
        "Altitude(m)": 705847.7952475372,
        "Argument of Periapsis(deg)": 0.004136412430932987,
        "Eccentricity": 0.0,
        "Inclination(deg)": 45.0,
        "Latitude(deg)": 38.453854313523884,
        "Longitude(deg)": -167.4333411652974,
        "Mean Anomaly(deg)": 118.73387867724303,
        "RAAN(deg)": 164.9960953475757,
        "Satellite Name": "Constellation 1 733",
        "Satellite Number": 733,
        "Semi-Major Axis(m)": 7083131.272910544,
        "Time(s)": 69
    },
    {
        "Altitude(m)": 705842.3067720357,
        "Argument of Periapsis(deg)": 0.004196360437178394,
        "Eccentricity": 0.0,
        "Inclination(deg)": 45.0,
        "Latitude(deg)": 38.42742274801079,
        "Longitude(deg)": -167.36775748799016,
        "Mean Anomaly(deg)": 118.7945798174929,
        "RAAN(deg)": 164.99603875841012,
        "Satellite Name": "Constellation 1 733",
        "Satellite Number": 733,
        "Semi-Major Axis(m)": 7083131.272910544,
        "Time(s)": 70
    },
    {
        "Altitude(m)": 705836.8124518766,
        "Argument of Periapsis(deg)": 0.004256308443423799,
        "Eccentricity": 0.0,
        "Inclination(deg)": 45.0,
        "Latitude(deg)": 38.40094965985101,
        "Longitude(deg)": -167.30222459960066,
        "Mean Anomaly(deg)": 118.85528095774288,
        "RAAN(deg)": 164.99598216924454,
        "Satellite Name": "Constellation 1 733",
        "Satellite Number": 733,
        "Semi-Major Axis(m)": 7083131.272910544,
        "Time(s)": 71
    },
    {
        "Altitude(m)": 705831.3123208871,
        "Argument of Periapsis(deg)": 0.004316256449669204,
        "Eccentricity": 0.0,
        "Inclination(deg)": 45.0,
        "Latitude(deg)": 38.37443511783848,
        "Longitude(deg)": -167.23674249433688,
        "Mean Anomaly(deg)": 118.91598209799271,
        "RAAN(deg)": 164.995925580079,
        "Satellite Name": "Constellation 1 733",
        "Satellite Number": 733,
        "Semi-Major Axis(m)": 7083131.272910544,
        "Time(s)": 72
    },
    {
        "Altitude(m)": 705825.8064129394,
        "Argument of Periapsis(deg)": 0.00437620445591461,
        "Eccentricity": 0.0,
        "Inclination(deg)": 45.0,
        "Latitude(deg)": 38.347879190739825,
        "Longitude(deg)": -167.17131116604202,
        "Mean Anomaly(deg)": 118.97668323824264,
        "RAAN(deg)": 164.99586899091344,
        "Satellite Name": "Constellation 1 733",
        "Satellite Number": 733,
        "Semi-Major Axis(m)": 7083131.272910544,
        "Time(s)": 73
    },
    {
        "Altitude(m)": 705820.2947619455,
        "Argument of Periapsis(deg)": 0.004436152462160016,
        "Eccentricity": 0.0,
        "Inclination(deg)": 45.0,
        "Latitude(deg)": 38.32128194729449,
        "Longitude(deg)": -167.10593077629392,
        "Mean Anomaly(deg)": 119.03738437849256,
        "RAAN(deg)": 164.99581240174783,
        "Satellite Name": "Constellation 1 733",
        "Satellite Number": 733,
        "Semi-Major Axis(m)": 7083131.272910544,
        "Time(s)": 74
    },
    {
        "Altitude(m)": 705814.7774018652,
        "Argument of Periapsis(deg)": 0.0044961004684054215,
        "Eccentricity": 0.0,
        "Inclination(deg)": 45.0,
        "Latitude(deg)": 38.29464345621276,
        "Longitude(deg)": -167.04060098201788,
        "Mean Anomaly(deg)": 119.09808551874245,
        "RAAN(deg)": 164.99575581258227,
        "Satellite Name": "Constellation 1 733",
        "Satellite Number": 733,
        "Semi-Major Axis(m)": 7083131.272910544,
        "Time(s)": 75
    }
]